#cP2022 10 16  0  0  0.00000000      96 ORBIT IGb14 HLM  IGS
## 2232      0.00000000   900.00000000 59868 0.0000000000000
+   32   G01G02G03G04G05G06G07G08G09G10G11G12G13G14G15G16G17
+        G18G19G20G21G22G23G24G25G26G27G28G29G30G31G32  0  0
+          0  0  0  0  0  0  0  0  0  0  0  0  0  0  0  0  0
+          0  0  0  0  0  0  0  0  0  0  0  0  0  0  0  0  0
+          0  0  0  0  0  0  0  0  0  0  0  0  0  0  0  0  0
++         2  2  2  2  2  2  2  2  2  2  3  2  2  2  2  2  2
++         3  2  2  2  2  2  2  2  2  2  2  2  2  2  2  0  0
++         0  0  0  0  0  0  0  0  0  0  0  0  0  0  0  0  0
++         0  0  0  0  0  0  0  0  0  0  0  0  0  0  0  0  0
++         0  0  0  0  0  0  0  0  0  0  0  0  0  0  0  0  0
%c G  cc GPS ccc cccc cccc cccc cccc ccccc ccccc ccccc ccccc
%c cc cc ccc ccc cccc cccc cccc cccc ccccc ccccc ccccc ccccc
%f  1.2500000  1.025000000  0.00000000000  0.000000000000000
%f  0.0000000  0.000000000  0.00000000000  0.000000000000000
%i    0    0    0    0      0      0      0      0         0
%i    0    0    0    0      0      0      0      0         0
/* RAPID ORBIT COMBINATION FROM WEIGHTED AVERAGE OF:        
/* cod emr esa gfz jpl ngs sio usn whu                      
/* REFERENCED TO IGS TIME (IGST) AND TO WEIGHTED MEAN POLE: 
/* PCV:IGS14_2223 OL/AL:FES2004  NONE     Y  ORB:CMB CLK:CMB
*  2022 10 16 10 30  0.00000000
PG01  21026.377393  14346.424401  -8482.026809    266.694015  4  4  7  95       
PG02 -19806.972614 -13937.946227  11362.892553   -642.139465  6  6  5  85       
PG03  11790.459199  20311.508891  12387.043549   -364.992254  5  5  5  65       
PG04  13250.962108   8638.410302  21352.454311   -102.718319  3  4  4  98       
PG05  -6509.199747 -25635.673601  -1682.913639   -100.607368  7  4  6  87       
PG06  13316.015987  -9635.278370  20942.527299    492.666994  6  6  2  67       
PG07  25539.371033   5504.866715  -5635.139169    298.163772  9  5  6  83       
PG08   4161.639282  15704.503556 -20981.816152    -89.122479  4  5  4 106       
PG09  20767.077577  -2498.869745  16314.747179   -282.472770  5  4  4  92       
PG10 -12231.178215  11218.355668 -20507.859675     -7.734241  7  4  3  88       
PG11   1343.154059 -15652.806381  21423.277741    -26.526897  5  7  4  93       
PG12 -10201.848564 -21314.752388  11963.038857   -292.885342  6  3  5  93       
PG13   5372.252631 -18258.199698 -18619.224859    407.020091  7  3  4  91       
PG14  13818.924037  -9004.122766 -20788.581603    -94.497708  6  5  6  75       
PG15  -6604.451245 -15622.237516 -20827.455541    -20.472549  7  3  3  90       
PG16   -619.199614  26016.613070   3600.845839   -526.282626  5  5  6  97       
PG17  22813.800966 -12845.997886  -4222.933552    669.221516  6  5  5 100       
PG18 -25078.763466  -4299.290997  -7871.034804     12.787853  9  4  7 102       
PG19  19363.749200 -17044.199041   5492.149667    224.510466  5  4  6 102       
PG20   1070.770427 -23855.004068  11879.327993    477.938440  3     6  83       
PG21  15717.133629  15319.995794 -14855.148646    157.913200  7  4  7 105       
PG22 -16722.202986  18794.476862   8656.165516    346.675268  7  3  3  79       
PG23 -15269.727730   -581.320678 -21744.602323     -1.030080  7  4  6 107       
PG24 -18844.073444 -14809.269703 -12214.977133     97.755081  7  4  7  72       
PG25 -15270.290079 -10713.814677  18717.591086    382.916813  5  6  5  83       
PG26  -5426.448848  21869.896481  13709.393194    232.634856  5  5  3 102       
PG27  -7726.528209  20071.795268 -15532.762403    197.066214  4  2  6 105       
PG28   9839.697191 -18429.944160 -16042.158631    328.308186  6  5  6  72       
PG29 -20126.487316   -172.851896  17330.143699   -560.036603  9  8  4  84       
PG30  21255.733872  -3886.235698 -15517.910448   -537.220929 10  5  9 100       
PG31 -12876.463561  10534.518695  20649.278638   -196.980548  7  8  3 116       
PG32 -21203.701512  15652.456145  -2120.514535   -265.085825  6  2  6  99       
*  2022 10 16 10 45  0.00000000
PG01  19980.147304  14105.106825 -11080.015188    266.688553  4  4  7 106       
PG02 -18452.914588 -13787.733981  13729.162246   -642.138112  5  6  6  86       
PG03  11862.056754  21609.106669   9908.531975   -364.995774  5  4  5  65       
PG04  11358.374654  10215.732430  21734.393758   -102.712773  2  4  4 100       
PG05  -6258.769707 -25706.191539   1183.715268   -100.608505  6  3  7  55       
PG06  15474.385824  -8810.615588  19793.456922    492.676709  6  6  2  76       
PG07  25957.925723   5909.781756  -2882.492516    298.160202  9  5  6  80       
PG08   2362.778674  17214.140781 -20022.302136    -89.125935  4  4  4 119       
PG09  19412.965274  -1045.666763  18036.821857   -282.468013  6  4  4 100       
PG10 -12779.100237   8851.460049 -21337.018413     -7.735499  7  5  3 106       
PG11   3645.359042 -14756.980235  21784.753344    -26.530937  6  7  2 104       
PG12 -10152.827540 -22588.698044   9471.458958   -292.889506  6  1  6  94       
PG13   7128.313176 -19241.865227 -16931.677319    407.026860  7  3  4 104       
PG14  14263.052801  -6624.842728 -21384.339935    -94.494175  6  5  5  86       
PG15  -5026.314929 -17244.792720 -19923.507592    -20.469799  7  3  3 105       
PG16   -950.142496  25435.777628   6418.796975   -526.283230  4  5  6  73       
PG17  22389.088077 -12263.082628  -7010.612377    669.224960  7  5  5  93       
PG18 -25704.998800  -4740.850845  -5128.608387     12.775809 10  4  7 101       
PG19  19900.991645 -17138.934107   2641.659677    224.514573  5  4  6  93       
PG20   1796.799697 -22544.455894  14119.466272    477.935443  4     6  64       
PG21  13853.269070  15001.219918 -16762.813370    157.912076  7  3  6 104       
PG22 -17503.271962  19065.534257   5953.743601    346.681566  7  4  3  92       
PG23 -15772.369802  -2979.736134 -21193.734086     -1.030234  7  4  6 101       
PG24 -17367.448360 -14667.722100 -14397.877235     97.741929  7  3  7  91       
PG25 -15552.478547 -12798.405160  17159.000395    382.920305  5  5  6  89       
PG26  -6106.870075  20272.147317  15745.836318    232.636090  5  6  2 101       
PG27  -9079.483128  21003.649444 -13353.441915    197.060429  4  2  6 101       
PG28  10190.965373 -16439.837173 -17809.932977    328.303469  6  5  5  77       
PG29 -18528.402149  -1504.679516  18959.630693   -560.039511  9  7  4  87       
PG30  22751.752634  -3111.282223 -13469.756919   -537.220847 11  5  9  85       
PG31 -15031.771216   9655.260831  19645.723353   -196.981590  8  7  4 112       
PG32 -21069.422716  15165.986380  -4945.051507   -265.096576  6  3  6  95       
*  2022 10 16 11  0  0.00000000
PG01  18653.636607  13845.141558 -13493.419552    266.683077  4  4  6 103       
PG02 -16850.984559 -13660.285100  15865.880988   -642.136581  5  6  6  78       
PG03  11932.058563  22618.322265   7259.616196   -364.999318  5  4  5  73       
PG04   9533.830447  11905.424923  21742.607401   -102.707235     4  4  91       
PG05  -5916.215547 -25479.434036   4029.778259   -100.609901  5  2  7  81       
PG06  17532.251404  -8150.264864  18306.246045    492.686453  6  6  3  75       
PG07  26097.570628   6204.081940    -81.387176    298.156678  9  5  5  69       
PG08    731.689813  18725.009596 -18716.329893    -89.126985  4  4  4 114       
PG09  18010.184101    602.321753  19447.084560   -282.463296  6  4  4 100       
PG10 -13471.280264   6448.840655 -21792.307852     -7.737730  7  5  2 118       
PG11   6010.589581 -13977.278919  21771.540239    -26.534962  6  7  2 105       
PG12 -10120.105549 -23573.972654   6816.009532   -292.893481  6  1  6  90       
PG13   8665.515904 -20194.831411 -14954.185860    407.032957  7  3  5  82       
PG14  14836.387415  -4226.592118 -21611.496926    -94.490659  6  5  5  49       
PG15  -3597.958964 -18850.708715 -18686.770981    -20.466798  8  3  4 102       
PG16  -1363.978372  24559.336235   9122.305979   -526.283704  3  5  6  95       
PG17  21762.761072 -11450.458946  -9676.389112    669.228133  7  6  5  93       
PG18 -26052.516103  -5057.813776  -2298.666495     12.763794 10  4  6 110       
PG19  20173.479255 -17059.739414   -255.168436    224.519018  5  4  6  93       
PG20   2684.107658 -21052.887155  16119.363061    477.932497  4     6  78       
PG21  11768.676467  14743.832812 -18377.311328    157.911879  7  3  6 106       
PG22 -18032.815428  19176.121205   3148.859720    346.687406  7  4  4  99       
PG23 -16379.883126  -5266.830994 -20279.248870     -1.030396  7  4  6 112       
PG24 -15661.048173 -14555.412852 -16342.472242     97.728857  7  3  8  96       
PG25 -15890.841429 -14674.277262  15301.739280    382.923848  5  5  6  90       
PG26  -6927.467429  18503.989636  17505.907352    232.637310  5  6  2 103       
PG27 -10198.696376  21823.694475 -10942.603496    197.054646  4  3  5  93       
PG28  10677.584267 -14283.613743 -19261.790103    328.299225  6  6  4  87       
PG29 -16878.346192  -3030.507940  20262.576725   -560.042186  9  7  4  84       
PG30  24048.788990  -2480.032664 -11191.397275   -537.220769 11  4  9  84       
PG31 -17098.184554   8928.528017  18303.876111   -196.983354  8  7  5 128       
PG32 -20736.304726  14448.735258  -7683.174734   -265.107358  6  4  6  86       
EOF
